1 28654U 05018A   16064.91821941 +.00000059 +00000-0 +57692-4 0  9998,2 28654 099.1978 069.1370 0013529 309.8021 050.1958 14.12271330555927
1 28654U 05018A   16065.55584148  .00000049  00000-0  52264-4 0  9993,2 28654  99.1979  69.7911 0013509 307.9174  52.0775 14.12271459556102
1 28654U 05018A   16065.91007591 +.00000041 +00000-0 +47635-4 0  9993,2 28654 099.1979 070.1545 0013504 306.8478 053.1454 14.12271509556068
1 28654U 05018A   16066.61854481  .00000040  00000-0  47312-4 0  9990,2 28654  99.1979  70.8813 0013485 304.7625  55.2275 14.12271710556251
1 28654U 05018A   16066.90193231 +.00000048 +00000-0 +51605-4 0  9999,2 28654 099.1979 071.1720 0013482 303.9108 056.0780 14.12271831556205
1 28654U 05018A   16067.53955419  .00000058  00000-0  57250-4 0  9996,2 28654  99.1980  71.8262 0013456 302.0403  57.9460 14.12272082556387
1 28654U 05018A   16067.89378859 +.00000058 +00000-0 +56801-4 0  9993,2 28654 099.1980 072.1896 0013445 300.9848 059.0001 14.12272151556349
1 28654U 05018A   16068.53141044  .00000058  00000-0  56942-4 0  9995,2 28654  99.1980  72.8437 0013429 299.1157  60.8668 14.12272315556522
1 28654U 05018A   16068.88564481 +.00000060 +00000-0 +58202-4 0  9991,2 28654 099.1980 073.2071 0013421 298.0618 061.9195 14.12272377556483
1 28654U 05018A   16069.52326665  .00000061  00000-0  58574-4 0  9996,2 28654  99.1981  73.8613 0013400 296.1671  63.8121 14.12272504556669
1 28654U 05018A   16069.94834783 +.00000064 +00000-0 +60369-4 0  9995,2 28654 099.1981 074.2974 0013393 294.8875 065.0903 14.12272580556639
1 28654U 05018A   16070.58596966  .00000056  00000-0  55985-4 0  9994,2 28654  99.1981  74.9516 0013369 292.9798  66.9962 14.12272641556817
1 28654U 05018A   16070.94020391 +.00000063 +00000-0 +59575-4 0  9995,2 28654 099.1981 075.3150 0013370 291.9145 068.0604 14.12272727556779
1 28654U 05018A   16071.57782563  .00000063  00000-0  59588-4 0  9995,2 28654  99.1982  75.9692 0013356 290.0025  69.9708 14.12272841556950
1 28654U 05018A   16071.64867248  .00000064  00000-0  60217-4 0  9999,2 28654  99.1981  76.0418 0013356 289.7935  70.1795 14.12272853556966
1 28654U 05018A   16071.93205983 +.00000077 +00000-0 +67176-4 0  9998,2 28654 099.1982 076.3326 0013356 288.9219 071.0504 14.12272984556912
1 28654U 05018A   16072.56968147  .00000061  00000-0  58618-4 0  9990,2 28654  99.1982  76.9867 0013346 286.9942  72.9766 14.12273051557094
1 28654U 05018A   16072.92391569 +.00000053 +00000-0 +54479-4 0  9990,2 28654 099.1982 077.3502 0013341 285.9005 074.0695 14.12273096557058
1 28654U 05018A   16073.49069045  .00000046  00000-0  50449-4 0  9999,2 28654  99.1982  77.9316 0013334 284.1822  75.7867 14.12273215557228
1 28654U 05018A   16073.91577151 +.00000039 +00000-0 +46584-4 0  9995,2 28654 099.1982 078.3677 0013336 282.9127 077.0554 14.12273269557192
1 28654U 05018A   16074.55339314  .00000021  00000-0  36934-4 0  9992,2 28654  99.1982  79.0219 0013328 280.9892  78.9779 14.12273347557376
1 28654U 05018A   16074.90762735 +.00000025 +00000-0 +39245-4 0  9990,2 28654 099.1982 079.3853 0013327 279.9174 080.0492 14.12273443557332
1 28654U 05018A   16075.47440203  .00000041  00000-0  47654-4 0  9997,2 28654  99.1983  79.9668 0013320 278.2025  81.7635 14.12273677557508
1 28654U 05018A   16075.61609573  .00000036  00000-0  44989-4 0  9992,2 28654  99.1983  80.1122 0013319 277.7831  82.1828 14.12273667557524
1 28654U 05018A   16075.89948309 +.00000036 +00000-0 +44966-4 0  9990,2 28654 099.1983 080.4029 0013316 276.9132 083.0523 14.12273723557474
1 28654U 05018A   16076.53710465  .00000045  00000-0  50131-4 0  9993,2 28654  99.1983  81.0571 0013308 275.0070  84.9582 14.12273902557659
1 28654U 05018A   16076.96218566 +.00000051 +00000-0 +53082-4 0  9990,2 28654 099.1983 081.4932 0013306 273.7584 086.2065 14.12273990557622
1 28654U 05018A   16077.52896036  .00000062  00000-0  59140-4 0  9990,2 28654  99.1983  82.0747 0013293 272.0437  87.9211 14.12274138557791
1 28654U 05018A   16077.95404135 +.00000064 +00000-0 +60491-4 0  9995,2 28654 099.1983 082.5108 0013293 270.7871 089.1776 14.12274199557768
1 28654U 05018A   16078.52081601  .00000075  00000-0  66246-4 0  9994,2 28654  99.1983  83.0923 0013284 269.0666  90.8982 14.12274328557933
1 28654U 05018A   16078.94589694 +.00000077 +00000-0 +67327-4 0  9998,2 28654 099.1982 083.5284 0013288 267.7977 092.1672 14.12274389557906
1 28654U 05018A   16079.51267154  .00000078  00000-0  68172-4 0  9996,2 28654  99.1982  84.1099 0013284 266.0832  93.8820 14.12274485558074
1 28654U 05018A   16079.93775240 +.00000081 +00000-0 +69465-4 0  9992,2 28654 099.1982 084.5460 0013292 264.8328 095.1326 14.12274564558046
1 28654U 05018A   16080.50452693  .00000071  00000-0  64291-4 0  9992,2 28654  99.1982  85.1275 0013292 263.1267  96.8391 14.12274641558216
1 28654U 05018A   16080.92960778 +.00000061 +00000-0 +58827-4 0  9993,2 28654 099.1982 085.5637 0013300 261.8494 098.1168 14.12274683558188
1 28654U 05018A   16081.42553540  .00000054  00000-0  55058-4 0  9999,2 28654  99.1982  86.0725 0013303 260.3267  99.6401 14.12274791558341
1 28654U 05018A   16081.92146302 +.00000041 +00000-0 +48023-4 0  9998,2 28654 099.1981 086.5813 0013314 258.8219 101.1455 14.12274844558329
1 28654U 05018A   16082.48823741  .00000034  00000-0  44076-4 0  9995,2 28654  99.1982  87.1627 0013321 257.1104 102.8578 14.12274981558497
1 28654U 05018A   16082.91331821 +.00000021 +00000-0 +37177-4 0  9996,2 28654 099.1982 087.5988 0013331 255.8166 104.1524 14.12275021558464
1 28654U 05018A   16083.55093949  .00000006  00000-0  28577-4 0  9990,2 28654  99.1983  88.2530 0013336 253.9388 106.0314 14.12275111558644
1 28654U 05018A   16084.54279469  .00000008  00000-0  29672-4 0  9992,2 28654  99.1983  89.2707 0013346 250.9019 109.0707 14.12275345558783
1 28654U 05018A   16084.96787551 +.00000004 +00000-0 +27481-4 0  9996,2 28654 099.1983 089.7068 0013352 249.6410 110.3327 14.12275384558758
1 28654U 05018A   16085.53464998  .00000008  00000-0  29668-4 0  9990,2 28654  99.1984  90.2883 0013352 247.9388 112.0365 14.12275485558928
1 28654U 05018A   16085.95973078 +.00000015 +00000-0 +33873-4 0  9991,2 28654 099.1984 090.7244 0013359 246.6872 113.2893 14.12275561558895
1 28654U 05018A   16086.52650522  .00000031  00000-0  42155-4 0  9992,2 28654  99.1984  91.3060 0013362 245.0151 114.9632 14.12275673559068
1 28654U 05018A   16086.95158603 +.00000026 +00000-0 +39866-4 0  9991,2 28654 099.1984 091.7422 0013373 243.7321 116.2475 14.12275682559037
1 28654U 05018A   16087.51836047  .00000031  00000-0  42414-4 0  9998,2 28654  99.1985  92.3237 0013381 242.0268 117.9548 14.12275743559206
1 28654U 05018A   16087.94344123 +.00000041 +00000-0 +47800-4 0  9999,2 28654 099.1985 092.7599 0013399 240.7379 119.2452 14.12275803559170
1 28654U 05018A   16088.51021562  .00000039  00000-0  46512-4 0  9998,2 28654  99.1985  93.3414 0013409 239.0493 120.9360 14.12275849559349
1 28654U 05018A   16088.93529638 +.00000032 +00000-0 +43112-4 0  9997,2 28654 099.1985 093.7775 0013427 237.7867 122.2003 14.12275865559317
1 28654U 05018A   16089.50207067  .00000038  00000-0  46364-4 0  9998,2 28654  99.1985  94.3591 0013449 236.0610 123.9282 14.12275977559481
1 28654U 05018A   16089.92715140 +.00000034 +00000-0 +43902-4 0  9991,2 28654 099.1985 094.7952 0013466 234.8014 125.1896 14.12276019559459
1 28654U 05018A   16090.49392568  .00000033  00000-0  43560-4 0  9999,2 28654  99.1985  95.3768 0013481 233.1502 126.8433 14.12276136559626
1 28654U 05018A   16090.91900636 +.00000031 +00000-0 +42129-4 0  9995,2 28654 099.1985 095.8129 0013500 231.8920 128.1034 14.12276206559599
1 28654U 05018A   16091.55662742  .00000025  00000-0  39285-4 0  9991,2 28654  99.1985  96.4671 0013519 229.9918 130.0066 14.12276334559772
1 28654U 05018A   16091.62747421  .00000024  00000-0  38467-4 0  9997,2 28654  99.1985  96.5398 0013522 229.7818 130.2170 14.12276333559788
1 28654U 05018A   16091.76916777  .00000026  00000-0  39769-4 0  9992,2 28654  99.1985  96.6852 0013527 229.3747 130.6248 14.12276364559803
1 28654U 05018A   16091.84001456 +.00000027 +00000-0 +40289-4 0  9990,2 28654 099.1984 096.7579 0013530 229.1658 130.8340 14.12276384559720
1 28654U 05018A   16092.54848238  .00000022  00000-0  37291-4 0  9999,2 28654  99.1985  97.4848 0013552 227.0703 132.9332 14.12276531559919
1 28654U 05018A   16092.90271628 +.00000024 +00000-0 +38530-4 0  9991,2 28654 099.1984 097.8482 0013567 226.0061 133.9992 14.12276609559872
1 28654U 05018A   16093.54033730  .00000025  00000-0  39037-4 0  9996,2 28654  99.1985  98.5024 0013587 224.1122 135.8965 14.12276744560055
1 28654U 05018A   16093.89457117 +.00000030 +00000-0 +41947-4 0  9992,2 28654 099.1984 098.8659 0013600 223.0633 136.9474 14.12276821560011
1 28654U 05018A   16094.53219214  .00000037  00000-0  45734-4 0  9993,2 28654  99.1985  99.5201 0013631 221.1063 138.9082 14.12276964560197
1 28654U 05018A   16094.95727278 +.00000044 +00000-0 +49529-4 0  9997,2 28654 099.1985 099.9563 0013639 219.8863 140.1307 14.12277026560164
1 28654U 05018A   16095.52404696  .00000052  00000-0  53979-4 0  9990,2 28654  99.1985 100.5378 0013653 218.2120 141.8084 14.12277121560337
1 28654U 05018A   16095.94912755 +.00000058 +00000-0 +56766-4 0  9999,2 28654 099.1984 100.9740 0013667 216.9908 143.0322 14.12277175560302
1 28654U 05018A   16096.51590167  .00000056  00000-0  56041-4 0  9996,2 28654  99.1984 101.5555 0013689 215.3028 144.7237 14.12277236560472
1 28654U 05018A   16096.65759518  .00000059  00000-0  57567-4 0  9995,2 28654  99.1984 101.7009 0013690 214.9056 145.1218 14.12277254560492
1 28654U 05018A   16097.01182895 +.00000059 +00000-0 +57275-4 0  9990,2 28654 099.1984 102.0644 0013707 213.8784 146.1512 14.12277315560458
1 28654U 05018A   16097.50775621  .00000054  00000-0  54856-4 0  9996,2 28654  99.1984 102.5733 0013728 212.4157 147.6171 14.12277381560612
1 28654U 05018A   16097.93283670 +.00000046 +00000-0 +50619-4 0  9995,2 28654 099.1984 103.0094 0013747 211.2051 148.8305 14.12277417560587
